{
  "type": "FeatureCollection",
  "features": [
    {
      "type": "Feature",
      "properties": {
        "norad_id": 30750,
        "name": "FENGYUN 1C DEB",
        "group": "fengyun-1c-debris",
        "lat": -79.23720144671663,
        "lon": -159.66975786396216,
        "alt_km": 828.7070945253763,
        "timestamp": "2025-12-27T03:58:44.429914+00:00",
        "meta_object_name": "FENGYUN 1C DEB",
        "meta_object_id": "1999-025ATL",
        "meta_epoch": "2025-12-25T03:57:53.858016",
        "meta_mean_motion": 14.28705957,
        "meta_eccentricity": 0.00393351,
        "meta_inclination": 98.919,
        "meta_ra_of_asc_node": 73.9886,
        "meta_arg_of_pericenter": 63.9787,
        "meta_mean_anomaly": 356.2147,
        "meta_ephemeris_type": 0,
        "meta_classification_type": "U",
        "meta_norad_cat_id": 30750,
        "meta_element_set_no": 999,
        "meta_rev_at_epoch": 96959,
        "meta_bstar": 0.0017775736,
        "meta_mean_motion_dot": 4.465e-05,
        "meta_mean_motion_ddot": 0,
        "tle_line1": "1 30750U 99025ATL 25359.16520669  .00004465  00000+0  17776-2 0  9997",
        "tle_line2": "2 30750  98.9190  73.9886 0039335  63.9787 356.2147 14.28705957969591"
      },
      "geometry": {
        "type": "Point",
        "coordinates": [
          -159.66975786396216,
          -79.23720144671663
        ]
      }
    },
    {
      "type": "Feature",
      "properties": {
        "norad_id": 30751,
        "name": "FENGYUN 1C DEB",
        "group": "fengyun-1c-debris",
        "lat": 19.755980341085387,
        "lon": 57.05364262190993,
        "alt_km": 811.1947521594211,
        "timestamp": "2025-12-27T03:58:44.429923+00:00",
        "meta_object_name": "FENGYUN 1C DEB",
        "meta_object_id": "1999-025ATM",
        "meta_epoch": "2025-12-26T02:42:54.430272",
        "meta_mean_motion": 14.15272001,
        "meta_eccentricity": 0.00511247,
        "meta_inclination": 98.8541,
        "meta_ra_of_asc_node": 59.2181,
        "meta_arg_of_pericenter": 58.3814,
        "meta_mean_anomaly": 1.761,
        "meta_ephemeris_type": 0,
        "meta_classification_type": "U",
        "meta_norad_cat_id": 30751,
        "meta_element_set_no": 999,
        "meta_rev_at_epoch": 96465,
        "meta_bstar": 0.0013945676,
        "meta_mean_motion_dot": 2.704e-05,
        "meta_mean_motion_ddot": 0,
        "tle_line1": "1 30751U 99025ATM 25360.11312998  .00002704  00000+0  13946-2 0  9998",
        "tle_line2": "2 30751  98.8541  59.2181 0051124  58.3814   1.7610 14.15272001964659"
      },
      "geometry": {
        "type": "Point",
        "coordinates": [
          57.05364262190993,
          19.755980341085387
        ]
      }
    },
    {
      "type": "Feature",
      "properties": {
        "norad_id": 30753,
        "name": "FENGYUN 1C DEB",
        "group": "fengyun-1c-debris",
        "lat": 48.20232594129981,
        "lon": 29.529548332793315,
        "alt_km": 849.4565681433651,
        "timestamp": "2025-12-27T03:58:44.429932+00:00",
        "meta_object_name": "FENGYUN 1C DEB",
        "meta_object_id": "1999-025ATP",
        "meta_epoch": "2025-12-26T14:09:01.000224",
        "meta_mean_motion": 14.12699748,
        "meta_eccentricity": 0.0055273,
        "meta_inclination": 98.8064,
        "meta_ra_of_asc_node": 38.9484,
        "meta_arg_of_pericenter": 315.0773,
        "meta_mean_anomaly": 44.5933,
        "meta_ephemeris_type": 0,
        "meta_classification_type": "U",
        "meta_norad_cat_id": 30753,
        "meta_element_set_no": 999,
        "meta_rev_at_epoch": 96547,
        "meta_bstar": 0.00097141,
        "meta_mean_motion_dot": 1.784e-05,
        "meta_mean_motion_ddot": 0,
        "tle_line1": "1 30753U 99025ATP 25360.58959491  .00001784  00000+0  97141-3 0  9993",
        "tle_line2": "2 30753  98.8064  38.9484 0055273 315.0773  44.5933 14.12699748965479"
      },
      "geometry": {
        "type": "Point",
        "coordinates": [
          29.529548332793315,
          48.20232594129981
        ]
      }
    },
    {
      "type": "Feature",
      "properties": {
        "norad_id": 30755,
        "name": "FENGYUN 1C DEB",
        "group": "fengyun-1c-debris",
        "lat": 44.14789446549417,
        "lon": -12.768685205639446,
        "alt_km": 845.7522288966393,
        "timestamp": "2025-12-27T03:58:44.429941+00:00",
        "meta_object_name": "FENGYUN 1C DEB",
        "meta_object_id": "1999-025ATR",
        "meta_epoch": "2025-12-26T18:36:31.172256",
        "meta_mean_motion": 14.45011431,
        "meta_eccentricity": 0.0150974,
        "meta_inclination": 98.2598,
        "meta_ra_of_asc_node": 354.9575,
        "meta_arg_of_pericenter": 226.1251,
        "meta_mean_anomaly": 308.83,
        "meta_ephemeris_type": 0,
        "meta_classification_type": "U",
        "meta_norad_cat_id": 30755,
        "meta_element_set_no": 999,
        "meta_rev_at_epoch": 98647,
        "meta_bstar": 0.00050298,
        "meta_mean_motion_dot": 1.97e-05,
        "meta_mean_motion_ddot": 0,
        "tle_line1": "1 30755U 99025ATR 25360.77536079  .00001970  00000+0  50298-3 0  9998",
        "tle_line2": "2 30755  98.2598 354.9575 0150974 226.1251 308.8300 14.45011431986476"
      },
      "geometry": {
        "type": "Point",
        "coordinates": [
          -12.768685205639446,
          44.14789446549417
        ]
      }
    },
    {
      "type": "Feature",
      "properties": {
        "norad_id": 30756,
        "name": "FENGYUN 1C DEB",
        "group": "fengyun-1c-debris",
        "lat": 72.62488502423889,
        "lon": 38.368884607890486,
        "alt_km": 872.9335637023632,
        "timestamp": "2025-12-27T03:58:44.429950+00:00",
        "meta_object_name": "FENGYUN 1C DEB",
        "meta_object_id": "1999-025ATS",
        "meta_epoch": "2025-12-26T16:29:30.509952",
        "meta_mean_motion": 14.18358004,
        "meta_eccentricity": 0.0072194,
        "meta_inclination": 98.9897,
        "meta_ra_of_asc_node": 68.2758,
        "meta_arg_of_pericenter": 275.8915,
        "meta_mean_anomaly": 236.3486,
        "meta_ephemeris_type": 0,
        "meta_classification_type": "U",
        "meta_norad_cat_id": 30756,
        "meta_element_set_no": 999,
        "meta_rev_at_epoch": 96602,
        "meta_bstar": 0.0015035,
        "meta_mean_motion_dot": 3.135e-05,
        "meta_mean_motion_ddot": 0,
        "tle_line1": "1 30756U 99025ATS 25360.68715868  .00003135  00000+0  15035-2 0  9998",
        "tle_line2": "2 30756  98.9897  68.2758 0072194 275.8915 236.3486 14.18358004966028"
      },
      "geometry": {
        "type": "Point",
        "coordinates": [
          38.368884607890486,
          72.62488502423889
        ]
      }
    },
    {
      "type": "Feature",
      "properties": {
        "norad_id": 30758,
        "name": "FENGYUN 1C DEB",
        "group": "fengyun-1c-debris",
        "lat": 46.28030699734267,
        "lon": 110.50531066521114,
        "alt_km": 828.8848346406112,
        "timestamp": "2025-12-27T03:58:44.429979+00:00",
        "meta_object_name": "FENGYUN 1C DEB",
        "meta_object_id": "1999-025ATU",
        "meta_epoch": "2025-12-26T14:48:20.064960",
        "meta_mean_motion": 14.17163868,
        "meta_eccentricity": 0.003851,
        "meta_inclination": 99.0187,
        "meta_ra_of_asc_node": 119.5088,
        "meta_arg_of_pericenter": 322.5135,
        "meta_mean_anomaly": 165.3764,
        "meta_ephemeris_type": 0,
        "meta_classification_type": "U",
        "meta_norad_cat_id": 30758,
        "meta_element_set_no": 999,
        "meta_rev_at_epoch": 96687,
        "meta_bstar": 0.0010574,
        "meta_mean_motion_dot": 2.101e-05,
        "meta_mean_motion_ddot": 0,
        "tle_line1": "1 30758U 99025ATU 25360.61689890  .00002101  00000+0  10574-2 0  9993",
        "tle_line2": "2 30758  99.0187 119.5088 0038510 322.5135 165.3764 14.17163868966872"
      },
      "geometry": {
        "type": "Point",
        "coordinates": [
          110.50531066521114,
          46.28030699734267
        ]
      }
    },
    {
      "type": "Feature",
      "properties": {
        "norad_id": 30759,
        "name": "FENGYUN 1C DEB",
        "group": "fengyun-1c-debris",
        "lat": -69.40035212963183,
        "lon": -95.26034248564996,
        "alt_km": 720.6216373414236,
        "timestamp": "2025-12-27T03:58:44.429989+00:00",
        "meta_object_name": "FENGYUN 1C DEB",
        "meta_object_id": "1999-025ATV",
        "meta_epoch": "2025-12-25T18:31:18.207264",
        "meta_mean_motion": 14.54763055,
        "meta_eccentricity": 0.00085359,
        "meta_inclination": 99.2559,
        "meta_ra_of_asc_node": 108.9106,
        "meta_arg_of_pericenter": 131.9638,
        "meta_mean_anomaly": 22.6716,
        "meta_ephemeris_type": 0,
        "meta_classification_type": "U",
        "meta_norad_cat_id": 30759,
        "meta_element_set_no": 999,
        "meta_rev_at_epoch": 97844,
        "meta_bstar": 0.002512604,
        "meta_mean_motion_dot": 0.00010733,
        "meta_mean_motion_ddot": 0,
        "tle_line1": "1 30759U 99025ATV 25359.77173851  .00010733  00000+0  25126-2 0  9993",
        "tle_line2": "2 30759  99.2559 108.9106 0008535 131.9638  22.6716 14.54763055978448"
      },
      "geometry": {
        "type": "Point",
        "coordinates": [
          -95.26034248564996,
          -69.40035212963183
        ]
      }
    }
  ]
}